ASTRA 1N                
1 37775U 11041A   26170.84211355  .00000114  00000+0  00000+0 0  9995
2 37775   0.0715  27.1550 0006379  74.6752 128.5940  1.00271968 44551
BSAT-3C (JCSAT-110R)    
1 37776U 11041B   26170.87231655 -.00000356  00000+0  00000+0 0  9993
2 37776   0.0163 338.5291 0000210 321.2076  32.3280  1.00272645 50490
PAKSAT-1R               
1 37779U 11042A   26170.82448235  .00000148  00000+0  00000+0 0  9994
2 37779   0.6969  84.5719 0003326 339.7283 178.5402  1.00267784 54504
SES-2                   
1 37809U 11049A   26170.80433243 -.00000201  00000+0  00000+0 0  9997
2 37809   0.0688  97.0531 0002683 348.6546  24.8690  1.00271714 53999
ARABSAT-5C              
1 37810U 11049B   26170.84211355  .00000118  00000+0  00000+0 0  9997
2 37810   0.0552  24.2902 0003462  82.5539 124.3728  1.00272893 54063
EUTELSAT 7 WEST A       
1 37816U 11051A   26170.85322421 -.00000066  00000+0  00000+0 0  9997
2 37816   0.0674  21.4040 0004219  77.2580 109.2471  1.00271874 53901
QUETZSAT 1              
1 37826U 11054A   26170.80641243 -.00000247  00000+0  00000+0 0  9993
2 37826   0.0320  57.5940 0002623  31.2120  32.5282  1.00272084 49903
INTELSAT 18 (IS-18)     
1 37834U 11056A   26170.78604567  .00000047  00000+0  00000+0 0  9996
2 37834   0.0352 273.5202 0001787 176.0431 281.4079  1.00271427 53837
EUTELSAT 16A            
1 37836U 11057A   26170.84211355  .00000098  00000+0  00000+0 0  9991
2 37836   0.0402 345.7045 0005672 103.1444 138.3833  1.00269467  7360
VIASAT-1                
1 37843U 11059A   26170.65631203 -.00000029  00000+0  00000+0 0  9993
2 37843   0.0181 342.2238 0002173 100.2624 306.5534  1.00269898 47346
ASIASAT 7               
1 37933U 11069A   26170.82614532 -.00000339  00000+0  00000+0 0  9993
2 37933   0.0401  85.6685 0001271 340.0879 245.2172  1.00270739 44888
BEIDOU-2 IGSO-5         
1 37948U 11073A   26169.66754444 -.00000192  00000+0  00000+0 0  9998
2 37948  47.6748 271.5267 0113971 221.7702 105.6518  1.00272695 53143
LUCH-5A                 
1 37951U 11074B   26170.58005486 -.00000059  00000+0  00000+0 0  9993
2 37951   8.7611  73.7727 0002394  28.2637 181.5175  1.00270641 53073
NIGCOMSAT 1R            
1 38014U 11077A   26170.75880734  .00000139  00000+0  00000+0 0  9991
2 38014   0.0467 111.9533 0002552 239.6847 231.9859  1.00271160 52980
WGS F4 (USA 233)        
1 38070U 12003A   26170.72214638  .00000000  00000+0  00000+0 0  9991
2 38070   0.0181  20.3298 0002086 140.8827  95.1007  1.00276562 44177
SES-4                   
1 38087U 12007A   26170.85877912 -.00000173  00000+0  00000+0 0  9999
2 38087   0.0253  26.5457 0002537  79.5443  89.1562  1.00273963 52252
BEIDOU-2 G5             
1 38091U 12008A   26170.76201402  .00000051  00000+0  00000+0 0  9994
2 38091   3.5812  69.6863 0009045 272.9388 258.3397  1.00272633 52397
MUOS-1                  
1 38093U 12009A   26170.65925869 -.00000135  00000+0  00000+0 0  9999
2 38093   5.4807  47.1505 0058445   1.9940 356.0477  1.00269921 52469
INTELSAT 22 (IS-22)     
1 38098U 12011A   26170.80731206 -.00000064  00000+0  00000+0 0  9995
2 38098   0.0163  44.8823 0001531  48.3798 177.5022  1.00272456  7219
APSTAR-7                
1 38107U 12013A   26170.88330897 -.00000107  00000+0  00000+0 0  9995
2 38107   0.0308  78.6770 0002621  18.8564 205.0531  1.00271528 51839
YAHSAT 1B               
1 38245U 12016A   26170.26072777  .00000120  00000+0  00000+0 0  9997
2 38245   0.0906  89.7187 0002592  15.9420 303.2810  1.00272159 45629
AEHF-2 (USA 235)        
1 38254U 12019A   26170.39069589 -.00000144  00000+0  00000+0 0  9998
2 38254   6.6554  57.4731 0002236  26.1919 308.0351  1.00271640  7006
JCSAT-13                
1 38331U 12023A   26170.78875772 -.00000361  00000+0  00000+0 0  9992
2 38331   0.0251  64.5468 0002657  35.9947 215.4252  1.00281703 51568
VINASAT-2               
1 38332U 12023B   26170.77651229 -.00000335  00000+0  00000+0 0  9992
2 38332   0.0134 358.1179 0002140  98.5348 222.7262  1.00270505 46684
NIMIQ 6                 
1 38342U 12026A   26170.66107872 -.00000179  00000+0  00000+0 0  9990
2 38342   0.0103 343.8277 0002640 100.1514 330.7792  1.00272115 50436
ZHONGXING-2A            
1 38352U 12028A   26169.91432547 -.00000299  00000+0  00000+0 0  9992
2 38352   1.4594  83.8471 0003837  47.1285 203.5563  1.00269343 51317
INTELSAT 19 (IS-19)     
1 38356U 12030A   26170.78327234 -.00000062  00000+0  00000+0 0  9990
2 38356   0.0163  17.2042 0002994  79.7825 258.9858  1.00271653 50471
ECHOSTAR 17             
1 38551U 12035A   26170.62099029 -.00000081  00000+0  00000+0 0  9994
2 38551   0.0178  17.8727 0002170  68.4370 297.9823  1.00270374 51088
METEOSAT-10 (MSG-3)     
1 38552U 12035B   26170.03753987 -.00000014  00000+0  00000+0 0  9996
2 38552   4.6769  61.0157 0001437   1.0805 218.9888  1.00266258 50870
SES-5                   
1 38652U 12036A   26170.39494258  .00000027  00000+0  00000+0 0  9993
2 38652   0.0451 317.4240 0001795 130.6144 326.7286  1.00271228 44474
INTELSAT 20 (IS-20)     
1 38740U 12043A   26170.86154266  .00000000  00000+0  00000+0 0  9994
2 38740   0.0362  68.6360 0001689 109.3595 108.7302  1.00270123 50776
HYLAS 2                 
1 38741U 12043B   26170.80727911 -.00000264  00000+0  00000+0 0  9995
2 38741   2.4350  81.0401 0002423  27.7426  17.2867  1.00272141 50804
