OBJECT_NAME,OBJECT_ID,EPOCH,MEAN_MOTION,ECCENTRICITY,INCLINATION,RA_OF_ASC_NODE,ARG_OF_PERICENTER,MEAN_ANOMALY,EPHEMERIS_TYPE,CLASSIFICATION_TYPE,NORAD_CAT_ID,ELEMENT_SET_NO,REV_AT_EPOCH,BSTAR,MEAN_MOTION_DOT,MEAN_MOTION_DDOT
ASTRA 1N,2011-041A,2026-06-19T20:12:38.610720,1.00271968,.0006379,0.0715,27.1550,74.6752,128.5940,0,U,37775,999,4455,0,.114E-5,0
BSAT-3C (JCSAT-110R),2011-041B,2026-06-19T20:56:08.149920,1.00272645,.000021,0.0163,338.5291,321.2076,32.3280,0,U,37776,999,5049,0,-.356E-5,0
PAKSAT-1R,2011-042A,2026-06-19T19:47:15.275040,1.00267784,.0003326,0.6969,84.5719,339.7283,178.5402,0,U,37779,999,5450,0,.148E-5,0
SES-2,2011-049A,2026-06-19T19:18:14.321952,1.00271714,.0002683,0.0688,97.0531,348.6546,24.8690,0,U,37809,999,5399,0,-.201E-5,0
ARABSAT-5C,2011-049B,2026-06-19T20:12:38.610720,1.00272893,.0003462,0.0552,24.2902,82.5539,124.3728,0,U,37810,999,5406,0,.118E-5,0
EUTELSAT 7 WEST A,2011-051A,2026-06-19T20:28:38.571744,1.00271874,.0004219,0.0674,21.4040,77.2580,109.2471,0,U,37816,999,5390,0,-.66E-6,0
QUETZSAT 1,2011-054A,2026-06-19T19:21:14.033952,1.00272084,.0002623,0.0320,57.5940,31.2120,32.5282,0,U,37826,999,4990,0,-.247E-5,0
INTELSAT 18 (IS-18),2011-056A,2026-06-19T18:51:54.345888,1.00271427,.0001787,0.0352,273.5202,176.0431,281.4079,0,U,37834,999,5383,0,.47E-6,0
EUTELSAT 16A,2011-057A,2026-06-19T20:12:38.610720,1.00269467,.0005672,0.0402,345.7045,103.1444,138.3833,0,U,37836,999,736,0,.98E-6,0
VIASAT-1,2011-059A,2026-06-19T15:45:05.359392,1.00269898,.0002173,0.0181,342.2238,100.2624,306.5534,0,U,37843,999,4734,0,-.29E-6,0
ASIASAT 7,2011-069A,2026-06-19T19:49:38.955648,1.00270739,.0001271,0.0401,85.6685,340.0879,245.2172,0,U,37933,999,4488,0,-.339E-5,0
BEIDOU-2 IGSO-5,2011-073A,2026-06-18T16:01:15.839616,1.00272695,.01139717,47.6748,271.5267,221.7702,105.6518,0,U,37948,999,5314,0,-.192E-5,0
LUCH-5A,2011-074B,2026-06-19T13:55:16.739904,1.00270641,.00023947,8.7611,73.7727,28.2637,181.5175,0,U,37951,999,5307,0,-.59E-6,0
NIGCOMSAT 1R,2011-077A,2026-06-19T18:12:40.954176,1.00271160,.0002552,0.0467,111.9533,239.6847,231.9859,0,U,38014,999,5298,0,.139E-5,0
WGS F4 (USA 233),2012-003A,2026-06-19T17:19:53.447232,1.00276562,.0002086,0.0181,20.3298,140.8827,95.1007,0,U,38070,999,4417,0,0,0
SES-4,2012-007A,2026-06-19T20:36:38.515968,1.00273963,.0002537,0.0253,26.5457,79.5443,89.1562,0,U,38087,999,5225,0,-.173E-5,0
BEIDOU-2 G5,2012-008A,2026-06-19T18:17:18.011328,1.00272633,.0009045,3.5812,69.6863,272.9388,258.3397,0,U,38091,999,5239,0,.51E-6,0
MUOS-1,2012-009A,2026-06-19T15:49:19.950816,1.00269921,.0058445,5.4807,47.1505,1.9940,356.0477,0,U,38093,999,5246,0,-.135E-5,0
INTELSAT 22 (IS-22),2012-011A,2026-06-19T19:22:31.761984,1.00272456,.0001531,0.0163,44.8823,48.3798,177.5022,0,U,38098,999,721,0,-.64E-6,0
APSTAR-7,2012-013A,2026-06-19T21:11:57.895008,1.00271528,.0002621,0.0308,78.6770,18.8564,205.0531,0,U,38107,999,5183,0,-.107E-5,0
YAHSAT 1B,2012-016A,2026-06-19T06:15:26.879328,1.00272159,.00025922,0.0906,89.7187,15.9420,303.2810,0,U,38245,999,4562,0,.12E-5,0
AEHF-2 (USA 235),2012-019A,2026-06-19T09:22:36.124896,1.00271640,.00022365,6.6554,57.4731,26.1919,308.0351,0,U,38254,999,700,0,-.144E-5,0
JCSAT-13,2012-023A,2026-06-19T18:55:48.667008,1.00281703,.0002657,0.0251,64.5468,35.9947,215.4252,0,U,38331,999,5156,0,-.361E-5,0
VINASAT-2,2012-023B,2026-06-19T18:38:10.661856,1.00270505,.000214,0.0134,358.1179,98.5348,222.7262,0,U,38332,999,4668,0,-.335E-5,0
NIMIQ 6,2012-026A,2026-06-19T15:51:57.201408,1.00272115,.000264,0.0103,343.8277,100.1514,330.7792,0,U,38342,999,5043,0,-.179E-5,0
ZHONGXING-2A,2012-028A,2026-06-18T21:56:37.720608,1.00269343,.0003837,1.4594,83.8471,47.1285,203.5563,0,U,38352,999,5131,0,-.299E-5,0
INTELSAT 19 (IS-19),2012-030A,2026-06-19T18:47:54.730176,1.00271653,.0002994,0.0163,17.2042,79.7825,258.9858,0,U,38356,999,5047,0,-.62E-6,0
ECHOSTAR 17,2012-035A,2026-06-19T14:54:13.561056,1.00270374,.000217,0.0178,17.8727,68.4370,297.9823,0,U,38551,999,5108,0,-.81E-6,0
METEOSAT-10 (MSG-3),2012-035B,2026-06-19T00:54:03.444768,1.00266258,.0001437,4.6769,61.0157,1.0805,218.9888,0,U,38552,999,5087,0,-.14E-6,0
SES-5,2012-036A,2026-06-19T09:28:43.038912,1.00271228,.00017955,0.0451,317.4240,130.6144,326.7286,0,U,38652,999,4447,0,.27E-6,0
INTELSAT 20 (IS-20),2012-043A,2026-06-19T20:40:37.285824,1.00270123,.0001689,0.0362,68.6360,109.3595,108.7302,0,U,38740,999,5077,0,0,0
HYLAS 2,2012-043B,2026-06-19T19:22:28.915104,1.00272141,.0002423,2.4350,81.0401,27.7426,17.2867,0,U,38741,999,5080,0,-.264E-5,0
